[{"OBJECT_NAME":"STARLINK-4031","OBJECT_ID":"2022-053Z","EPOCH":"2025-07-29T07:40:12.444672","MEAN_MOTION":15.08836842,"ECCENTRICITY":0.0001508,"INCLINATION":53.2192,"RA_OF_ASC_NODE":66.872,"ARG_OF_PERICENTER":86.6641,"MEAN_ANOMALY":273.4524,"EPHEMERIS_TYPE":0,"CLASSIFICATION_TYPE":"U","NORAD_CAT_ID":52679,"ELEMENT_SET_NO":999,"REV_AT_EPOCH":17702,"BSTAR":3.1723e-5,"MEAN_MOTION_DOT":2.17e-6,"MEAN_MOTION_DDOT":0},{"OBJECT_NAME":"STARLINK-3774","OBJECT_ID":"2022-053AA","EPOCH":"2025-07-28T07:38:47.091840","MEAN_MOTION":15.0883597,"ECCENTRICITY":0.0001173,"INCLINATION":53.2171,"RA_OF_ASC_NODE":71.1322,"ARG_OF_PERICENTER":90.1842,"MEAN_ANOMALY":269.9284,"EPHEMERIS_TYPE":0,"CLASSIFICATION_TYPE":"U","NORAD_CAT_ID":52680,"ELEMENT_SET_NO":999,"REV_AT_EPOCH":17728,"BSTAR":-6.509e-5,"MEAN_MOTION_DOT":-1.323e-5,"MEAN_MOTION_DDOT":0},{"OBJECT_NAME":"STARLINK-4068","OBJECT_ID":"2022-053AB","EPOCH":"2025-07-28T23:37:58.912896","MEAN_MOTION":15.08837509,"ECCENTRICITY":0.0001365,"INCLINATION":53.2187,"RA_OF_ASC_NODE":68.3776,"ARG_OF_PERICENTER":97.2923,"MEAN_ANOMALY":262.8225,"EPHEMERIS_TYPE":0,"CLASSIFICATION_TYPE":"U","NORAD_CAT_ID":52681,"ELEMENT_SET_NO":999,"REV_AT_EPOCH":17697,"BSTAR":6.9264e-5,"MEAN_MOTION_DOT":8.15e-6,"MEAN_MOTION_DDOT":0},{"OBJECT_NAME":"STARLINK-4017","OBJECT_ID":"2022-053AC","EPOCH":"2025-07-28T20:43:06.064032","MEAN_MOTION":15.08842067,"ECCENTRICITY":0.0001247,"INCLINATION":53.2175,"RA_OF_ASC_NODE":68.9189,"ARG_OF_PERICENTER":94.4494,"MEAN_ANOMALY":265.6641,"EPHEMERIS_TYPE":0,"CLASSIFICATION_TYPE":"U","NORAD_CAT_ID":52682,"ELEMENT_SET_NO":999,"REV_AT_EPOCH":17695,"BSTAR":7.8283e-5,"MEAN_MOTION_DOT":9.58e-6,"MEAN_MOTION_DDOT":0},{"OBJECT_NAME":"STARLINK-4014","OBJECT_ID":"2022-053AE","EPOCH":"2025-07-29T07:45:29.796192","MEAN_MOTION":15.08846281,"ECCENTRICITY":0.0001278,"INCLINATION":53.2185,"RA_OF_ASC_NODE":66.8543,"ARG_OF_PERICENTER":83.6434,"MEAN_ANOMALY":276.4704,"EPHEMERIS_TYPE":0,"CLASSIFICATION_TYPE":"U","NORAD_CAT_ID":52684,"ELEMENT_SET_NO":999,"REV_AT_EPOCH":17703,"BSTAR":0.00010073,"MEAN_MOTION_DOT":1.316e-5,"MEAN_MOTION_DDOT":0},{"OBJECT_NAME":"STARLINK-4029","OBJECT_ID":"2022-053AF","EPOCH":"2025-07-28T21:41:23.413344","MEAN_MOTION":15.08840739,"ECCENTRICITY":0.000132,"INCLINATION":53.218,"RA_OF_ASC_NODE":68.7332,"ARG_OF_PERICENTER":91.9166,"MEAN_ANOMALY":268.1977,"EPHEMERIS_TYPE":0,"CLASSIFICATION_TYPE":"U","NORAD_CAT_ID":52685,"ELEMENT_SET_NO":999,"REV_AT_EPOCH":17696,"BSTAR":4.9305e-5,"MEAN_MOTION_DOT":4.97e-6,"MEAN_MOTION_DDOT":0},{"OBJECT_NAME":"STARLINK-4005","OBJECT_ID":"2022-053AG","EPOCH":"2025-07-28T08:17:20.547744","MEAN_MOTION":15.08841362,"ECCENTRICITY":0.0001465,"INCLINATION":53.2171,"RA_OF_ASC_NODE":71.5243,"ARG_OF_PERICENTER":87.8919,"MEAN_ANOMALY":272.2241,"EPHEMERIS_TYPE":0,"CLASSIFICATION_TYPE":"U","NORAD_CAT_ID":52686,"ELEMENT_SET_NO":999,"REV_AT_EPOCH":17725,"BSTAR":1.1028e-5,"MEAN_MOTION_DOT":-1.12e-6,"MEAN_MOTION_DDOT":0},{"OBJECT_NAME":"STARLINK-3981","OBJECT_ID":"2022-053AH","EPOCH":"2025-07-28T21:36:05.997024","MEAN_MOTION":15.08832757,"ECCENTRICITY":0.0001321,"INCLINATION":53.2165,"RA_OF_ASC_NODE":68.7508,"ARG_OF_PERICENTER":88.7154,"MEAN_ANOMALY":271.3989,"EPHEMERIS_TYPE":0,"CLASSIFICATION_TYPE":"U","NORAD_CAT_ID":52687,"ELEMENT_SET_NO":999,"REV_AT_EPOCH":17696,"BSTAR":-4.4262e-5,"MEAN_MOTION_DOT":-9.92e-6,"MEAN_MOTION_DDOT":0},{"OBJECT_NAME":"STARLINK-4032","OBJECT_ID":"2022-053AJ","EPOCH":"2025-07-29T07:03:05.253120","MEAN_MOTION":15.08839016,"ECCENTRICITY":0.0001315,"INCLINATION":53.2171,"RA_OF_ASC_NODE":66.8669,"ARG_OF_PERICENTER":91.0331,"MEAN_ANOMALY":269.0812,"EPHEMERIS_TYPE":0,"CLASSIFICATION_TYPE":"U","NORAD_CAT_ID":52688,"ELEMENT_SET_NO":999,"REV_AT_EPOCH":17702,"BSTAR":-1.798e-5,"MEAN_MOTION_DOT":-5.74e-6,"MEAN_MOTION_DDOT":0},{"OBJECT_NAME":"STARLINK-4078","OBJECT_ID":"2022-053AK","EPOCH":"2025-07-28T04:58:58.359360","MEAN_MOTION":15.31013556,"ECCENTRICITY":7.24e-5,"INCLINATION":53.2202,"RA_OF_ASC_NODE":61.1998,"ARG_OF_PERICENTER":147.2879,"MEAN_ANOMALY":212.8168,"EPHEMERIS_TYPE":0,"CLASSIFICATION_TYPE":"U","NORAD_CAT_ID":52689,"ELEMENT_SET_NO":999,"REV_AT_EPOCH":17701,"BSTAR":0.00083055,"MEAN_MOTION_DOT":0.00024949,"MEAN_MOTION_DDOT":0},{"OBJECT_NAME":"STARLINK-4035","OBJECT_ID":"2022-053AL","EPOCH":"2025-07-28T21:46:41.480256","MEAN_MOTION":15.08838273,"ECCENTRICITY":0.0001278,"INCLINATION":53.2174,"RA_OF_ASC_NODE":68.7167,"ARG_OF_PERICENTER":86.9952,"MEAN_ANOMALY":273.1187,"EPHEMERIS_TYPE":0,"CLASSIFICATION_TYPE":"U","NORAD_CAT_ID":52690,"ELEMENT_SET_NO":999,"REV_AT_EPOCH":17696,"BSTAR":1.4135e-5,"MEAN_MOTION_DOT":-6.3e-7,"MEAN_MOTION_DDOT":0},{"OBJECT_NAME":"STARLINK-3993","OBJECT_ID":"2022-053AN","EPOCH":"2025-07-29T00:04:25.406976","MEAN_MOTION":15.08841414,"ECCENTRICITY":0.0001413,"INCLINATION":53.2185,"RA_OF_ASC_NODE":68.0217,"ARG_OF_PERICENTER":85.657,"MEAN_ANOMALY":274.4584,"EPHEMERIS_TYPE":0,"CLASSIFICATION_TYPE":"U","NORAD_CAT_ID":52692,"ELEMENT_SET_NO":999,"REV_AT_EPOCH":17698,"BSTAR":2.6674e-5,"MEAN_MOTION_DOT":1.37e-6,"MEAN_MOTION_DDOT":0},{"OBJECT_NAME":"STARLINK-3946","OBJECT_ID":"2022-053AP","EPOCH":"2025-07-29T08:11:59.612352","MEAN_MOTION":15.08843634,"ECCENTRICITY":0.0001386,"INCLINATION":53.2174,"RA_OF_ASC_NODE":66.7707,"ARG_OF_PERICENTER":89.8676,"MEAN_ANOMALY":270.2475,"EPHEMERIS_TYPE":0,"CLASSIFICATION_TYPE":"U","NORAD_CAT_ID":52693,"ELEMENT_SET_NO":999,"REV_AT_EPOCH":17703,"BSTAR":1.1218e-5,"MEAN_MOTION_DOT":-1.09e-6,"MEAN_MOTION_DDOT":0},{"OBJECT_NAME":"STARLINK-4072","OBJECT_ID":"2022-053AQ","EPOCH":"2025-07-28T21:25:29.596224","MEAN_MOTION":15.08837455,"ECCENTRICITY":0.0001309,"INCLINATION":53.2178,"RA_OF_ASC_NODE":68.7848,"ARG_OF_PERICENTER":87.215,"MEAN_ANOMALY":272.8992,"EPHEMERIS_TYPE":0,"CLASSIFICATION_TYPE":"U","NORAD_CAT_ID":52694,"ELEMENT_SET_NO":999,"REV_AT_EPOCH":17696,"BSTAR":2.4226e-5,"MEAN_MOTION_DOT":9.8e-7,"MEAN_MOTION_DDOT":0},{"OBJECT_NAME":"STARLINK-4041","OBJECT_ID":"2022-053AR","EPOCH":"2025-07-28T23:55:50.028384","MEAN_MOTION":15.0883643,"ECCENTRICITY":0.0001211,"INCLINATION":53.2184,"RA_OF_ASC_NODE":73.1161,"ARG_OF_PERICENTER":87.0391,"MEAN_ANOMALY":273.074,"EPHEMERIS_TYPE":0,"CLASSIFICATION_TYPE":"U","NORAD_CAT_ID":52695,"ELEMENT_SET_NO":999,"REV_AT_EPOCH":17691,"BSTAR":3.4854e-6,"MEAN_MOTION_DOT":-2.32e-6,"MEAN_MOTION_DDOT":0},{"OBJECT_NAME":"STARLINK-4018","OBJECT_ID":"2022-053AT","EPOCH":"2025-07-29T08:31:15.186432","MEAN_MOTION":15.0884737,"ECCENTRICITY":0.0001329,"INCLINATION":53.2174,"RA_OF_ASC_NODE":71.7107,"ARG_OF_PERICENTER":85.4157,"MEAN_ANOMALY":274.6987,"EPHEMERIS_TYPE":0,"CLASSIFICATION_TYPE":"U","NORAD_CAT_ID":52697,"ELEMENT_SET_NO":999,"REV_AT_EPOCH":17696,"BSTAR":-2.7206e-6,"MEAN_MOTION_DOT":-3.31e-6,"MEAN_MOTION_DDOT":0},{"OBJECT_NAME":"STARLINK-4030","OBJECT_ID":"2022-053AU","EPOCH":"2025-07-28T20:02:41.905536","MEAN_MOTION":15.08834162,"ECCENTRICITY":0.0001331,"INCLINATION":53.2165,"RA_OF_ASC_NODE":74.0308,"ARG_OF_PERICENTER":85.8267,"MEAN_ANOMALY":274.2877,"EPHEMERIS_TYPE":0,"CLASSIFICATION_TYPE":"U","NORAD_CAT_ID":52698,"ELEMENT_SET_NO":999,"REV_AT_EPOCH":17688,"BSTAR":-3.3458e-5,"MEAN_MOTION_DOT":-8.2e-6,"MEAN_MOTION_DDOT":0},{"OBJECT_NAME":"STARLINK-3987","OBJECT_ID":"2022-053AV","EPOCH":"2025-07-29T06:39:55.614528","MEAN_MOTION":15.08839103,"ECCENTRICITY":0.0001297,"INCLINATION":53.2171,"RA_OF_ASC_NODE":62.0847,"ARG_OF_PERICENTER":87.8294,"MEAN_ANOMALY":272.2847,"EPHEMERIS_TYPE":0,"CLASSIFICATION_TYPE":"U","NORAD_CAT_ID":52699,"ELEMENT_SET_NO":999,"REV_AT_EPOCH":17708,"BSTAR":-4.6372e-7,"MEAN_MOTION_DOT":-2.95e-6,"MEAN_MOTION_DDOT":0},{"OBJECT_NAME":"STARLINK-4034","OBJECT_ID":"2022-053AW","EPOCH":"2025-07-28T07:56:38.781888","MEAN_MOTION":15.08835243,"ECCENTRICITY":0.0001255,"INCLINATION":53.2167,"RA_OF_ASC_NODE":75.9473,"ARG_OF_PERICENTER":88.0899,"MEAN_ANOMALY":272.0237,"EPHEMERIS_TYPE":0,"CLASSIFICATION_TYPE":"U","NORAD_CAT_ID":52700,"ELEMENT_SET_NO":999,"REV_AT_EPOCH":17722,"BSTAR":-2.4822e-6,"MEAN_MOTION_DOT":-3.27e-6,"MEAN_MOTION_DDOT":0},{"OBJECT_NAME":"STARLINK-4033","OBJECT_ID":"2022-053AY","EPOCH":"2025-07-28T08:39:06.202080","MEAN_MOTION":15.08841009,"ECCENTRICITY":0.0001399,"INCLINATION":53.2181,"RA_OF_ASC_NODE":76.2034,"ARG_OF_PERICENTER":90.0394,"MEAN_ANOMALY":270.0758,"EPHEMERIS_TYPE":0,"CLASSIFICATION_TYPE":"U","NORAD_CAT_ID":52702,"ELEMENT_SET_NO":999,"REV_AT_EPOCH":17681,"BSTAR":1.6677e-5,"MEAN_MOTION_DOT":-2.3e-7,"MEAN_MOTION_DDOT":0},{"OBJECT_NAME":"STARLINK-4020","OBJECT_ID":"2022-053AZ","EPOCH":"2025-07-28T23:34:00.247584","MEAN_MOTION":15.08842026,"ECCENTRICITY":0.0001348,"INCLINATION":53.218,"RA_OF_ASC_NODE":58.3981,"ARG_OF_PERICENTER":92.156,"MEAN_ANOMALY":267.9587,"EPHEMERIS_TYPE":0,"CLASSIFICATION_TYPE":"U","NORAD_CAT_ID":52703,"ELEMENT_SET_NO":999,"REV_AT_EPOCH":17711,"BSTAR":3.4096e-6,"MEAN_MOTION_DOT":-2.34e-6,"MEAN_MOTION_DDOT":0},{"OBJECT_NAME":"STARLINK-3999","OBJECT_ID":"2022-053BA","EPOCH":"2025-07-28T20:44:25.520064","MEAN_MOTION":15.0884236,"ECCENTRICITY":0.000145,"INCLINATION":53.2188,"RA_OF_ASC_NODE":58.914,"ARG_OF_PERICENTER":89.2374,"MEAN_ANOMALY":270.8784,"EPHEMERIS_TYPE":0,"CLASSIFICATION_TYPE":"U","NORAD_CAT_ID":52704,"ELEMENT_SET_NO":999,"REV_AT_EPOCH":17709,"BSTAR":-2.6055e-5,"MEAN_MOTION_DOT":-7.03e-6,"MEAN_MOTION_DDOT":0},{"OBJECT_NAME":"STARLINK-3844","OBJECT_ID":"2022-053BB","EPOCH":"2025-07-28T20:28:31.552608","MEAN_MOTION":15.08840928,"ECCENTRICITY":0.0001394,"INCLINATION":53.2176,"RA_OF_ASC_NODE":58.9637,"ARG_OF_PERICENTER":88.0189,"MEAN_ANOMALY":272.0962,"EPHEMERIS_TYPE":0,"CLASSIFICATION_TYPE":"U","NORAD_CAT_ID":52705,"ELEMENT_SET_NO":999,"REV_AT_EPOCH":17709,"BSTAR":-3.7955e-5,"MEAN_MOTION_DOT":-8.92e-6,"MEAN_MOTION_DDOT":0}]
